NORAD_CAT_ID,OBJECT_NAME,OBJECT_TYPE,EPOCH,MEAN_MOTION,ECCENTRICITY,INCLINATION,RA_OF_ASC_NODE,ARG_OF_PERICENTER,MEAN_ANOMALY,BSTAR,MEAN_MOTION_DOT,MEAN_MOTION_DDOT,TLE_LINE0,TLE_LINE1,TLE_LINE2,SEMIMAJOR_AXIS,PERIOD,APOGEE,PERIGEE,DECAYED
52665.0,STARLINK-4064,PAYLOAD,2024-06-28 21:55:07,15.08845544,0.0001584,53.2172,51.916,88.0296,272.0878,0.00017736,2.536e-05,0.0,0 STARLINK-4064,1 52665U 22053K   24180.91327860  .00002536  00000-0  17736-3 0  9990,2 52665  53.2172  51.9160 0001584  88.0296 272.0878 15.08845544117635,6917.863,95.437,540.824,538.633,0.0
52665.0,STARLINK-4064,PAYLOAD,2024-06-29 20:10:32,15.08819588,0.000132,53.2168,47.7512,106.0291,254.0846,-0.00012871,-2.335e-05,0.0,0 STARLINK-4064,1 52665U 22053K   24181.84065338 -.00002335  00000-0 -12871-3 0  9996,2 52665  53.2168  47.7512 0001320 106.0291 254.0846 15.08819588117777,6917.943,95.439,540.721,538.895,0.0
52665.0,STARLINK-4064,PAYLOAD,2024-06-29 21:45:55,15.08822806,0.0001254,53.2173,47.4527,111.5915,248.521,-0.00023154,-3.969e-05,0.0,0 STARLINK-4064,1 52665U 22053K   24181.90689133 -.00003969  00000-0 -23154-3 0  9998,2 52665  53.2173  47.4527 0001254 111.5915 248.5210 15.08822806117787,6917.933,95.439,540.665,538.93,0.0
52665.0,STARLINK-4064,PAYLOAD,2024-06-30 21:36:41,15.08858362,0.0001338,53.2167,42.997,93.4161,266.6984,0.00041241,6.285e-05,0.0,0 STARLINK-4064,1 52665U 22053K   24182.90048062  .00006285  00000-0  41241-3 0  9998,2 52665  53.2167  42.9970 0001338  93.4161 266.6984 15.08858362117938,6917.824,95.436,540.615,538.764,0.0
52665.0,STARLINK-4064,PAYLOAD,2024-07-01 07:08:59,15.0887338,0.0001233,53.218,41.2139,92.4186,267.6948,0.00049455,7.599e-05,0.0,0 STARLINK-4064,1 52665U 22053K   24183.29790706  .00007599  00000-0  49455-3 0  9994,2 52665  53.2180  41.2139 0001233  92.4186 267.6948 15.08873380117996,6917.778,95.435,540.496,538.79,0.0
52665.0,STARLINK-4064,PAYLOAD,2024-07-01 15:05:56,15.08823638,5.59e-05,53.2168,39.721,53.3116,306.7928,-0.0001103,-2.042e-05,0.0,0 STARLINK-4064,1 52665U 22053K   24183.62912879 -.00002042  00000-0 -11030-3 0  9996,2 52665  53.2168  39.7210 0000559  53.3116 306.7928 15.08823638118044,6917.93,95.439,540.182,539.409,0.0
52665.0,STARLINK-4064,PAYLOAD,2024-07-01 21:27:28,15.08855021,0.0001053,53.2177,38.5374,93.2269,266.8843,0.00016733,2.377e-05,0.0,0 STARLINK-4064,1 52665U 22053K   24183.89407739  .00002377  00000-0  16733-3 0  9993,2 52665  53.2177  38.5374 0001053  93.2269 266.8843 15.08855021118081,6917.834,95.437,540.428,538.971,0.0
52665.0,STARLINK-4064,PAYLOAD,2024-07-02 13:21:19,15.08845466,0.000263,53.2178,35.5628,98.3644,261.7646,0.00090049,0.00014075,0.0,0 STARLINK-4064,1 52665U 22053K   24184.55647994  .00014075  00000-0  90049-3 0  9996,2 52665  53.2178  35.5628 0002630  98.3644 261.7646 15.08845466118184,6917.864,95.437,541.548,537.909,0.0
52665.0,STARLINK-4064,PAYLOAD,2024-07-02 19:42:52,15.08825642,0.0001152,53.2174,34.3739,109.2193,250.8923,0.00026161,3.877e-05,0.0,0 STARLINK-4064,1 52665U 22053K   24184.82144206  .00003877  00000-0  26161-3 0  9996,2 52665  53.2174  34.3739 0001152 109.2193 250.8923 15.08825642118225,6917.924,95.438,540.586,538.992,0.0
52665.0,STARLINK-4064,PAYLOAD,2024-07-03 21:09:03,15.08840484,9.96e-05,53.2177,29.617,89.8585,270.2521,0.00025119,3.712e-05,0.0,0 STARLINK-4064,1 52665U 22053K   24185.88128514  .00003712  00000-0  25119-3 0  9997,2 52665  53.2177  29.6170 0000996  89.8585 270.2521 15.08840484118385,6917.879,95.438,540.433,539.055,0.0
52665.0,STARLINK-4064,PAYLOAD,2024-07-04 13:02:54,15.08846781,9.74e-05,53.2167,26.643,94.0124,266.098,0.00041732,6.361e-05,0.0,0 STARLINK-4064,1 52665U 22053K   24186.54368395  .00006361  00000-0  41732-3 0  9996,2 52665  53.2167  26.6430 0000974  94.0124 266.0980 15.08846781118482,6917.86,95.437,540.398,539.051,0.0
52665.0,STARLINK-4064,PAYLOAD,2024-07-04 22:35:13,15.08844726,8.58e-05,53.217,24.8561,89.1091,271.0,0.00024101,3.55e-05,0.0,0 STARLINK-4064,1 52665U 22053K   24186.94112452  .00003550  00000-0  24101-3 0  9999,2 52665  53.2170  24.8561 0000858  89.1091 271.0000 15.08844726118543,6917.866,95.437,540.324,539.137,0.0
52665.0,STARLINK-4064,PAYLOAD,2024-07-05 06:32:08,15.08848715,9.13e-05,53.2172,23.3701,86.4817,273.6279,0.00026961,4.007e-05,0.0,0 STARLINK-4064,1 52665U 22053K   24187.27232238  .00004007  00000-0  26961-3 0  9995,2 52665  53.2172  23.3701 0000913  86.4817 273.6279 15.08848715118596,6917.854,95.437,540.35,539.087,0.0
52665.0,STARLINK-4064,PAYLOAD,2024-07-05 19:15:14,15.08837647,8.89e-05,53.2165,20.9923,92.044,268.0654,2.755e-05,1.51e-06,0.0,0 STARLINK-4064,1 52665U 22053K   24187.80224678  .00000151  00000-0  27550-4 0  9995,2 52665  53.2165  20.9923 0000889  92.0440 268.0654 15.08837647118670,6917.888,95.438,540.368,539.138,0.0
52665.0,STARLINK-4064,PAYLOAD,2024-07-05 22:26:00,15.0884452,0.000105,53.2179,20.3953,100.9128,259.1983,7.7177e-05,9.41e-06,0.0,0 STARLINK-4064,1 52665U 22053K   24187.93472410  .00000941  00000-0  77177-4 0  9995,2 52665  53.2179  20.3953 0001050 100.9128 259.1983 15.08844520118691,6917.867,95.437,540.458,539.005,0.0
52665.0,STARLINK-4064,PAYLOAD,2024-07-06 12:44:28,15.08843556,0.00018,53.2182,17.72,88.4622,271.6576,0.00011546,1.55e-05,0.0,0 STARLINK-4064,1 52665U 22053K   24188.53088622  .00001550  00000-0  11546-3 0  9994,2 52665  53.2182  17.7200 0001800  88.4622 271.6576 15.08843556118787,6917.87,95.437,540.98,538.489,0.0
52665.0,STARLINK-4064,PAYLOAD,2024-07-06 19:06:01,15.08834526,0.0001065,53.2185,16.5312,91.3897,268.7217,-1.2005e-05,-4.79e-06,0.0,0 STARLINK-4064,1 52665U 22053K   24188.79584989 -.00000479  00000-0 -12005-4 0  9992,2 52665  53.2185  16.5312 0001065  91.3897 268.7217 15.08834526118822,6917.897,95.438,540.499,539.025,0.0
52665.0,STARLINK-4064,PAYLOAD,2024-07-07 17:21:25,15.08841446,0.0001077,53.2183,12.3671,98.704,261.4074,0.00019255,2.778e-05,0.0,0 STARLINK-4064,1 52665U 22053K   24189.72320981  .00002778  00000-0  19255-3 0  9991,2 52665  53.2183  12.3671 0001077  98.7040 261.4074 15.08841446118961,6917.876,95.437,540.486,538.996,0.0
52665.0,STARLINK-4064,PAYLOAD,2024-07-08 12:26:03,15.08843156,0.0001119,53.2188,8.8005,89.9407,270.1714,0.00026182,3.882e-05,0.0,0 STARLINK-4064,1 52665U 22053K   24190.51809069  .00003882  00000-0  26182-3 0  9993,2 52665  53.2188   8.8005 0001119  89.9407 270.1714 15.08843156119085,6917.871,95.437,540.51,538.962,0.0
52665.0,STARLINK-4064,PAYLOAD,2024-07-08 18:47:35,15.08841469,0.0001037,53.2186,7.612,82.6599,277.4511,0.00018573,2.669e-05,0.0,0 STARLINK-4064,1 52665U 22053K   24190.78305149  .00002669  00000-0  18573-3 0  9999,2 52665  53.2186   7.6120 0001037  82.6599 277.4511 15.08841469119124,6917.876,95.437,540.458,539.024,0.0
52665.0,STARLINK-4064,PAYLOAD,2024-07-09 12:16:50,15.08838875,9.68e-05,53.2182,4.3397,72.5265,287.5833,3.6243e-05,2.89e-06,0.0,0 STARLINK-4064,1 52665U 22053K   24191.51169215  .00000289  00000-0  36243-4 0  9994,2 52665  53.2182   4.3397 0000968  72.5265 287.5833 15.08838875119238,6917.884,95.438,540.418,539.079,0.0
52665.0,STARLINK-4064,PAYLOAD,2024-07-09 18:38:22,15.08834494,9.75e-05,53.2181,3.1507,74.812,285.298,-2.2623e-05,-6.48e-06,0.0,0 STARLINK-4064,1 52665U 22053K   24191.77665489 -.00000648  00000-0 -22623-4 0  9994,2 52665  53.2181   3.1507 0000975  74.8120 285.2980 15.08834494119275,6917.897,95.438,540.437,539.088,0.0
52665.0,STARLINK-4064,PAYLOAD,2024-07-10 04:10:41,15.08838361,9.5e-05,53.2191,1.3701,95.554,264.556,0.00013661,1.887e-05,0.0,0 STARLINK-4064,1 52665U 22053K   24192.17409497  .00001887  00000-0  13661-3 0  9999,2 52665  53.2191   1.3701 0000950  95.5540 264.5560 15.08838361119339,6917.885,95.438,540.408,539.093,0.0
52665.0,STARLINK-4064,PAYLOAD,2024-07-10 20:04:33,15.08836361,9.34e-05,53.2192,358.3972,98.2208,261.889,9.9487e-05,1.296e-05,0.0,0 STARLINK-4064,1 52665U 22053K   24192.83649701  .00001296  00000-0  99487-4 0  9991,2 52665  53.2192 358.3972 0000934  98.2208 261.8890 15.08836361119433,6917.892,95.438,540.403,539.11,0.0
52665.0,STARLINK-4064,PAYLOAD,2024-07-11 10:23:01,15.08836153,9.57e-05,53.2189,355.7193,84.4586,275.6515,0.00014889,2.082e-05,0.0,0 STARLINK-4064,1 52665U 22053K   24193.43265693  .00002082  00000-0  14889-3 0  9998,2 52665  53.2189 355.7193 0000957  84.4586 275.6515 15.08836153119522,6917.892,95.438,540.419,539.095,0.0
52665.0,STARLINK-4064,PAYLOAD,2024-07-12 03:52:14,15.08855788,9.71e-05,53.2187,352.4464,80.2028,279.9074,0.00019115,2.757e-05,0.0,0 STARLINK-4064,1 52665U 22053K   24194.16128391  .00002757  00000-0  19115-3 0  9998,2 52665  53.2187 352.4464 0000971  80.2028 279.9074 15.08855788119630,6917.832,95.437,540.369,539.025,0.0
52665.0,STARLINK-4064,PAYLOAD,2024-07-12 10:13:48,15.08835598,0.0001308,53.2176,351.2568,85.4746,274.6395,1.6e-05,-3.3e-07,0.0,0 STARLINK-4064,1 52665U 22053K   24194.42625739 -.00000033  00000-0  16000-4 0  9992,2 52665  53.2176 351.2568 0001308  85.4746 274.6395 15.08835598119678,6917.894,95.438,540.664,538.854,0.0
52665.0,STARLINK-4064,PAYLOAD,2024-07-12 19:46:07,15.08842439,0.0001122,53.2149,349.4715,81.2458,278.8661,0.00012491,1.701e-05,0.0,0 STARLINK-4064,1 52665U 22053K   24194.82369406  .00001701  00000-0  12491-3 0  9993,2 52665  53.2149 349.4715 0001122  81.2458 278.8661 15.08842439119730,6917.873,95.437,540.514,538.962,0.0
52665.0,STARLINK-4064,PAYLOAD,2024-07-13 03:43:02,15.08849533,0.0001062,53.2175,347.9855,92.4735,267.6378,0.00022128,3.237e-05,0.0,0 STARLINK-4064,1 52665U 22053K   24195.15488995  .00003237  00000-0  22128-3 0  9999,2 52665  53.2175 347.9855 0001062  92.4735 267.6378 15.08849533119780,6917.851,95.437,540.451,538.982,0.0
52665.0,STARLINK-4064,PAYLOAD,2024-07-13 14:50:44,15.08840811,0.0001124,53.2185,345.9023,128.7889,231.3204,7.9135e-05,9.72e-06,0.0,0 STARLINK-4064,1 52665U 22053K   24195.61857529  .00000972  00000-0  79135-4 0  9997,2 52665  53.2185 345.9023 0001124 128.7889 231.3204 15.08840811119852,6917.878,95.438,540.52,538.965,0.0
